[{"OBJECT_NAME":"STARLINK-3419","OBJECT_ID":"2022-010H","EPOCH":"2026-03-09T20:57:01.604736","MEAN_MOTION":15.08823731,"ECCENTRICITY":0.00012931,"INCLINATION":53.216,"RA_OF_ASC_NODE":278.2949,"ARG_OF_PERICENTER":119.6861,"MEAN_ANOMALY":240.426,"EPHEMERIS_TYPE":0,"CLASSIFICATION_TYPE":"U","NORAD_CAT_ID":51463,"ELEMENT_SET_NO":999,"REV_AT_EPOCH":22654,"BSTAR":0.00019341287,"MEAN_MOTION_DOT":2.79e-5,"MEAN_MOTION_DDOT":0},{"OBJECT_NAME":"FENGYUN 1C DEB","OBJECT_ID":"1999-025BZN","EPOCH":"2026-03-03T04:13:23.729376","MEAN_MOTION":14.87557859,"ECCENTRICITY":0.01425437,"INCLINATION":98.383,"RA_OF_ASC_NODE":189.7124,"ARG_OF_PERICENTER":136.8849,"MEAN_ANOMALY":224.3635,"EPHEMERIS_TYPE":0,"CLASSIFICATION_TYPE":"U","NORAD_CAT_ID":31608,"ELEMENT_SET_NO":999,"REV_AT_EPOCH":99828,"BSTAR":0.0013394908,"MEAN_MOTION_DOT":0.00014627,"MEAN_MOTION_DDOT":0}]
